IRIDIUM 921             
1 24873U 97034E   24321.20773710  .00114720  00000+0  12957-2 0  9996
2 24873  86.3761 211.8460 0006621  64.9829 295.2124 15.62081027498695
IRIDIUM 26              
1 24903U 97043A   24321.17618099  .00000823  00000+0  27234-3 0  9997
2 24903  86.4009 199.9961 0002341  82.1085 278.0377 14.36796514426153
IRIDIUM 22              
1 24907U 97043E   24321.21138774  .00000715  00000+0  24127-3 0  9991
2 24907  86.4013 203.3347 0002094  82.1356 278.0078 14.35648504426215
DUMMY MASS 1            
1 24925U 97048A   24321.47375578  .00000948  00000+0  10370-3 0  9992
2 24925  86.3374 233.5847 0007052 159.8791 200.2713 14.86619100473769
DUMMY MASS 2            
1 24926U 97048B   24321.26598499  .00000955  00000+0  10512-3 0  9995
2 24926  86.3370 235.2495 0007267 173.4673 186.6647 14.86373914473272
IRIDIUM 29              
1 24944U 97051A   24321.30603416  .00000848  00000+0  28486-3 0  9990
2 24944  86.3983 233.0949 0002054  85.0247 275.1184 14.36107260422937
IRIDIUM 33              
1 24946U 97051C   24321.48036608  .00000609  00000+0  20856-3 0  9992
2 24946  86.3901 232.2691 0009864  59.2703 300.9463 14.34648817422258
IRIDIUM 28              
1 24948U 97051E   24321.48766439  .00000845  00000+0  27843-3 0  9991
2 24948  86.3992 230.6561 0002672  79.4954 280.6545 14.37056073423368
